[{"OBJECT_NAME":"STARLINK-34369","OBJECT_ID":"2025-123G","EPOCH":"2026-03-09T17:36:43.094304","MEAN_MOTION":14.98333066,"ECCENTRICITY":0.00038672,"INCLINATION":70.002,"RA_OF_ASC_NODE":194.4002,"ARG_OF_PERICENTER":269.3151,"MEAN_ANOMALY":90.7565,"EPHEMERIS_TYPE":0,"CLASSIFICATION_TYPE":"U","NORAD_CAT_ID":64297,"ELEMENT_SET_NO":999,"REV_AT_EPOCH":4162,"BSTAR":0.00032177252,"MEAN_MOTION_DOT":3.749e-5,"MEAN_MOTION_DDOT":0},{"OBJECT_NAME":"FENGYUN 1C DEB","OBJECT_ID":"1999-025DEQ","EPOCH":"2026-03-08T16:18:11.400768","MEAN_MOTION":15.03063896,"ECCENTRICITY":0.0041192,"INCLINATION":98.802,"RA_OF_ASC_NODE":149.1421,"ARG_OF_PERICENTER":81.4798,"MEAN_ANOMALY":279.1089,"EPHEMERIS_TYPE":0,"CLASSIFICATION_TYPE":"U","NORAD_CAT_ID":33655,"ELEMENT_SET_NO":999,"REV_AT_EPOCH":97846,"BSTAR":0.0032042236,"MEAN_MOTION_DOT":0.0004416,"MEAN_MOTION_DDOT":0}]
